[{"OBJECT_NAME":"STARLINK-6367","OBJECT_ID":"2023-099BA","EPOCH":"2026-03-08T12:21:43.953984","MEAN_MOTION":15.02582337,"ECCENTRICITY":0.00020064,"INCLINATION":43.0017,"RA_OF_ASC_NODE":241.9977,"ARG_OF_PERICENTER":280.3521,"MEAN_ANOMALY":79.7095,"EPHEMERIS_TYPE":0,"CLASSIFICATION_TYPE":"U","NORAD_CAT_ID":57376,"ELEMENT_SET_NO":999,"REV_AT_EPOCH":14609,"BSTAR":0.00064595253,"MEAN_MOTION_DOT":8.543e-5,"MEAN_MOTION_DDOT":0},{"OBJECT_NAME":"FENGYUN 1C DEB","OBJECT_ID":"1999-025DNE","EPOCH":"2026-03-03T04:32:20.578848","MEAN_MOTION":15.05751159,"ECCENTRICITY":0.01321557,"INCLINATION":98.9662,"RA_OF_ASC_NODE":53.9178,"ARG_OF_PERICENTER":282.0758,"MEAN_ANOMALY":76.5683,"EPHEMERIS_TYPE":0,"CLASSIFICATION_TYPE":"U","NORAD_CAT_ID":35174,"ELEMENT_SET_NO":999,"REV_AT_EPOCH":91373,"BSTAR":0.0030573957,"MEAN_MOTION_DOT":0.00054187,"MEAN_MOTION_DDOT":0}]
